ALOS-4 (DAICHI-4)       
1 60182U 24123A   24238.52086682  .00003140  00000+0  42722-3 0  9992
2 60182  97.9210 334.1866 0001551  98.3503 261.7884 14.79470525  8196
